[{"OBJECT_NAME":"STARLINK-34466","OBJECT_ID":"2025-244W","EPOCH":"2026-03-09T17:07:08.248224","MEAN_MOTION":15.30205375,"ECCENTRICITY":0.00010687,"INCLINATION":53.1596,"RA_OF_ASC_NODE":229.7611,"ARG_OF_PERICENTER":89.8415,"MEAN_ANOMALY":270.2708,"EPHEMERIS_TYPE":0,"CLASSIFICATION_TYPE":"U","NORAD_CAT_ID":66226,"ELEMENT_SET_NO":999,"REV_AT_EPOCH":2166,"BSTAR":0.00055805774,"MEAN_MOTION_DOT":0.00016208,"MEAN_MOTION_DDOT":0},{"OBJECT_NAME":"COSMOS 1862","OBJECT_ID":"1987-055A","EPOCH":"2026-03-09T22:37:02.390592","MEAN_MOTION":15.30492139,"ECCENTRICITY":0.00097484,"INCLINATION":82.4856,"RA_OF_ASC_NODE":47.1862,"ARG_OF_PERICENTER":26.6325,"MEAN_ANOMALY":333.5414,"EPHEMERIS_TYPE":0,"CLASSIFICATION_TYPE":"U","NORAD_CAT_ID":18152,"ELEMENT_SET_NO":999,"REV_AT_EPOCH":8987,"BSTAR":0.00034125048,"MEAN_MOTION_DOT":0.00010107,"MEAN_MOTION_DDOT":0}]
